{
    "links": {
        "self": "http://www.neowsapp.com/rest/v1/neo/3734646?api_key=iIulBulltgU6a56xZRHN4H3l9WmuAYTsLGpBGhQ2"
    },
    "id": "3734646",
    "neo_reference_id": "3734646",
    "name": "(2015 VD106)",
    "designation": "2015 VD106",
    "nasa_jpl_url": "http://ssd.jpl.nasa.gov/sbdb.cgi?sstr=3734646",
    "absolute_magnitude_h": 26.8,
    "estimated_diameter": {
        "kilometers": {
            "estimated_diameter_min": 0.0116025908,
            "estimated_diameter_max": 0.0259441818
        },
        "meters": {
            "estimated_diameter_min": 11.6025908209,
            "estimated_diameter_max": 25.9441817907
        },
        "miles": {
            "estimated_diameter_min": 0.0072095135,
            "estimated_diameter_max": 0.0161209622
        },
        "feet": {
            "estimated_diameter_min": 38.066244069,
            "estimated_diameter_max": 85.1187093863
        }
    },
    "is_potentially_hazardous_asteroid": false,
    "close_approach_data": [
        {
            "close_approach_date": "2012-11-26",
            "close_approach_date_full": "2012-Nov-26 01:08",
            "epoch_date_close_approach": 1353892080000,
            "relative_velocity": {
                "kilometers_per_second": "10.3140469869",
                "kilometers_per_hour": "37130.569152871",
                "miles_per_hour": "23071.4917050158"
            },
            "miss_distance": {
                "astronomical": "0.0917950568",
                "lunar": "35.7082770952",
                "kilometers": "13732344.973809016",
                "miles": "8532883.4916597808"
            },
            "orbiting_body": "Mars"
        },
        {
            "close_approach_date": "2015-11-09",
            "close_approach_date_full": "2015-Nov-09 20:08",
            "epoch_date_close_approach": 1447099680000,
            "relative_velocity": {
                "kilometers_per_second": "8.471656954",
                "kilometers_per_hour": "30497.9650345488",
                "miles_per_hour": "18950.2494404951"
            },
            "miss_distance": {
                "astronomical": "0.0259456985",
                "lunar": "10.0928767165",
                "kilometers": "3881421.231262195",
                "miles": "2411803.316300491"
            },
            "orbiting_body": "Earth"
        }
    ],
    "orbital_data": {
        "orbit_id": "6",
        "orbit_determination_date": "2017-04-06 08:30:37",
        "first_observation_date": "2015-11-14",
        "last_observation_date": "2015-11-20",
        "data_arc_in_days": 6,
        "observations_used": 21,
        "orbit_uncertainty": "8",
        "minimum_orbit_intersection": ".0202088",
        "jupiter_tisserand_invariant": "3.762",
        "epoch_osculation": "2457341.5",
        "eccentricity": ".4873859693795373",
        "semi_major_axis": "1.922544366916708",
        "inclination": "5.916465370381802",
        "ascending_node_longitude": "51.92733285088604",
        "orbital_period": "973.6726772250345",
        "perihelion_distance": ".9855232169718394",
        "perihelion_argument": "331.8148690789301",
        "aphelion_distance": "2.859565516861577",
        "perihelion_time": "2457317.826730788531",
        "mean_anomaly": "8.752815104576621",
        "mean_motion": ".3697341092347373",
        "equinox": "J2000",
        "orbit_class": {
            "orbit_class_type": "APO",
            "orbit_class_description": "Near-Earth asteroid orbits which cross the Earth’s orbit similar to that of 1862 Apollo",
            "orbit_class_range": "a (semi-major axis) > 1.0 AU; q (perihelion) < 1.017 AU"
        }
    },
    "is_sentry_object": false
}